{"fetched_at":"2026-07-21T17:53:31.607Z","source":"https://celestrak.org/NORAD/elements/gp.php?NAME=HULIANWANG&FORMAT=JSON","constellation":"guowang","records":[{"OBJECT_NAME":"HULIANWANG DIGUI-92","OBJECT_ID":"2025-231F","EPOCH":"2026-07-21T06:18:55.338336","CLASSIFICATION_TYPE":"U","MEAN_MOTION":13.29329147,"ECCENTRICITY":0.00005059,"INCLINATION":50.0063,"RA_OF_ASC_NODE":53.4404,"ARG_OF_PERICENTER":2.8572,"MEAN_ANOMALY":357.2303,"EPHEMERIS_TYPE":0,"NORAD_CAT_ID":66000,"ELEMENT_SET_NO":999,"REV_AT_EPOCH":3742,"BSTAR":0.000022314746,"MEAN_MOTION_DOT":-0.00000114,"MEAN_MOTION_DDOT":0},{"OBJECT_NAME":"HULIANWANG DIGUI-93","OBJECT_ID":"2025-231G","EPOCH":"2026-07-20T22:41:47.328288","CLASSIFICATION_TYPE":"U","MEAN_MOTION":13.29328191,"ECCENTRICITY":0.0000501,"INCLINATION":50.0029,"RA_OF_ASC_NODE":54.3653,"ARG_OF_PERICENTER":356.8891,"MEAN_ANOMALY":3.1978,"EPHEMERIS_TYPE":0,"NORAD_CAT_ID":66001,"ELEMENT_SET_NO":999,"REV_AT_EPOCH":3738,"BSTAR":0.000030675657,"MEAN_MOTION_DOT":-0.0000011,"MEAN_MOTION_DDOT":0},{"OBJECT_NAME":"HULIANWANG DIGUI-94","OBJECT_ID":"2025-231H","EPOCH":"2026-07-20T21:05:47.765184","CLASSIFICATION_TYPE":"U","MEAN_MOTION":13.29326146,"ECCENTRICITY":0.00005314,"INCLINATION":50.0067,"RA_OF_ASC_NODE":54.7636,"ARG_OF_PERICENTER":358.2931,"MEAN_ANOMALY":1.7939,"EPHEMERIS_TYPE":0,"NORAD_CAT_ID":66002,"ELEMENT_SET_NO":999,"REV_AT_EPOCH":3737,"BSTAR":0.000032214413,"MEAN_MOTION_DOT":-0.00000109,"MEAN_MOTION_DDOT":0},{"OBJECT_NAME":"HULIANWANG DIGUI-95","OBJECT_ID":"2025-231J","EPOCH":"2026-07-20T22:29:48.001632","CLASSIFICATION_TYPE":"U","MEAN_MOTION":13.29332707,"ECCENTRICITY":0.00004682,"INCLINATION":50.0042,"RA_OF_ASC_NODE":54.3481,"ARG_OF_PERICENTER":3.5797,"MEAN_ANOMALY":356.5079,"EPHEMERIS_TYPE":0,"NORAD_CAT_ID":66003,"ELEMENT_SET_NO":999,"REV_AT_EPOCH":3738,"BSTAR":0.000038551024,"MEAN_MOTION_DOT":-0.00000106,"MEAN_MOTION_DDOT":0},{"OBJECT_NAME":"HULIANWANG DIGUI-96","OBJECT_ID":"2025-258A","EPOCH":"2026-07-21T02:40:28.874784","CLASSIFICATION_TYPE":"U","MEAN_MOTION":13.29327567,"ECCENTRICITY":0.00008155,"INCLINATION":50.0024,"RA_OF_ASC_NODE":173.9673,"ARG_OF_PERICENTER":271.1701,"MEAN_ANOMALY":88.9077,"EPHEMERIS_TYPE":0,"NORAD_CAT_ID":66412,"ELEMENT_SET_NO":999,"REV_AT_EPOCH":3424,"BSTAR":0.000080850302,"MEAN_MOTION_DOT":-8.7e-7,"MEAN_MOTION_DDOT":0},{"OBJECT_NAME":"HULIANWANG DIGUI-97","OBJECT_ID":"2025-258B","EPOCH":"2026-07-21T05:16:47.580960","CLASSIFICATION_TYPE":"U","MEAN_MOTION":13.29327013,"ECCENTRICITY":0.00009596,"INCLINATION":49.9989,"RA_OF_ASC_NODE":173.8011,"ARG_OF_PERICENTER":270.6006,"MEAN_ANOMALY":89.4756,"EPHEMERIS_TYPE":0,"NORAD_CAT_ID":66413,"ELEMENT_SET_NO":999,"REV_AT_EPOCH":3425,"BSTAR":0.000079273314,"MEAN_MOTION_DOT":-8.7e-7,"MEAN_MOTION_DDOT":0},{"OBJECT_NAME":"HULIANWANG DIGUI-98","OBJECT_ID":"2025-258C","EPOCH":"2026-07-21T03:16:44.320512","CLASSIFICATION_TYPE":"U","MEAN_MOTION":13.29323526,"ECCENTRICITY":0.00010569,"INCLINATION":50.0027,"RA_OF_ASC_NODE":174.1082,"ARG_OF_PERICENTER":265.4835,"MEAN_ANOMALY":94.5917,"EPHEMERIS_TYPE":0,"NORAD_CAT_ID":66414,"ELEMENT_SET_NO":999,"REV_AT_EPOCH":3424,"BSTAR":0.000084907666,"MEAN_MOTION_DOT":-8.5e-7,"MEAN_MOTION_DDOT":0},{"OBJECT_NAME":"HULIANWANG DIGUI-99","OBJECT_ID":"2025-258D","EPOCH":"2026-07-21T02:28:29.963712","CLASSIFICATION_TYPE":"U","MEAN_MOTION":13.29326821,"ECCENTRICITY":0.00009331,"INCLINATION":50.0025,"RA_OF_ASC_NODE":173.9263,"ARG_OF_PERICENTER":273.8899,"MEAN_ANOMALY":86.1867,"EPHEMERIS_TYPE":0,"NORAD_CAT_ID":66415,"ELEMENT_SET_NO":999,"REV_AT_EPOCH":3423,"BSTAR":0.000071478639,"MEAN_MOTION_DOT":-9.1e-7,"MEAN_MOTION_DDOT":0},{"OBJECT_NAME":"HULIANWANG DIGUI-100","OBJECT_ID":"2025-258E","EPOCH":"2026-07-21T03:04:41.780640","CLASSIFICATION_TYPE":"U","MEAN_MOTION":13.29323571,"ECCENTRICITY":0.00009815,"INCLINATION":50.0027,"RA_OF_ASC_NODE":174.0689,"ARG_OF_PERICENTER":278.1388,"MEAN_ANOMALY":81.9372,"EPHEMERIS_TYPE":0,"NORAD_CAT_ID":66416,"ELEMENT_SET_NO":999,"REV_AT_EPOCH":3425,"BSTAR":0.000086929207,"MEAN_MOTION_DOT":-8.4e-7,"MEAN_MOTION_DDOT":0},{"OBJECT_NAME":"HULIANWANG DIGUI-101","OBJECT_ID":"2025-258F","EPOCH":"2026-07-21T04:40:38.239392","CLASSIFICATION_TYPE":"U","MEAN_MOTION":13.29327496,"ECCENTRICITY":0.00007824,"INCLINATION":49.9978,"RA_OF_ASC_NODE":173.6449,"ARG_OF_PERICENTER":275.7279,"MEAN_ANOMALY":84.3504,"EPHEMERIS_TYPE":0,"NORAD_CAT_ID":66417,"ELEMENT_SET_NO":999,"REV_AT_EPOCH":3426,"BSTAR":0.00009520259,"MEAN_MOTION_DOT":-8e-7,"MEAN_MOTION_DDOT":0},{"OBJECT_NAME":"HULIANWANG DIGUI-102","OBJECT_ID":"2025-258G","EPOCH":"2026-07-21T04:04:46.368768","CLASSIFICATION_TYPE":"U","MEAN_MOTION":13.2932348,"ECCENTRICITY":0.00008522,"INCLINATION":49.9993,"RA_OF_ASC_NODE":173.5405,"ARG_OF_PERICENTER":269.4876,"MEAN_ANOMALY":90.5899,"EPHEMERIS_TYPE":0,"NORAD_CAT_ID":66418,"ELEMENT_SET_NO":999,"REV_AT_EPOCH":3425,"BSTAR":0.000066404286,"MEAN_MOTION_DOT":-9.3e-7,"MEAN_MOTION_DDOT":0},{"OBJECT_NAME":"HULIANWANG DIGUI-103","OBJECT_ID":"2025-258H","EPOCH":"2026-07-21T03:52:32.427552","CLASSIFICATION_TYPE":"U","MEAN_MOTION":13.29326601,"ECCENTRICITY":0.00009678,"INCLINATION":49.9987,"RA_OF_ASC_NODE":173.4815,"ARG_OF_PERICENTER":279.1716,"MEAN_ANOMALY":80.9047,"EPHEMERIS_TYPE":0,"NORAD_CAT_ID":66419,"ELEMENT_SET_NO":999,"REV_AT_EPOCH":3425,"BSTAR":0.00006807208,"MEAN_MOTION_DOT":-9.2e-7,"MEAN_MOTION_DDOT":0},{"OBJECT_NAME":"HULIANWANG DIGUI-104","OBJECT_ID":"2025-258J","EPOCH":"2026-07-21T03:40:34.358016","CLASSIFICATION_TYPE":"U","MEAN_MOTION":13.29326592,"ECCENTRICITY":0.00009008,"INCLINATION":50.0003,"RA_OF_ASC_NODE":173.4783,"ARG_OF_PERICENTER":269.1477,"MEAN_ANOMALY":90.9292,"EPHEMERIS_TYPE":0,"NORAD_CAT_ID":66420,"ELEMENT_SET_NO":999,"REV_AT_EPOCH":3424,"BSTAR":0.000066945394,"MEAN_MOTION_DOT":-9.3e-7,"MEAN_MOTION_DDOT":0},{"OBJECT_NAME":"HULIANWANG DIGUI-105","OBJECT_ID":"2025-285A","EPOCH":"2026-07-20T20:33:26.224128","CLASSIFICATION_TYPE":"U","MEAN_MOTION":13.29322775,"ECCENTRICITY":0.00009259,"INCLINATION":50.0063,"RA_OF_ASC_NODE":25.4673,"ARG_OF_PERICENTER":54.432,"MEAN_ANOMALY":305.6639,"EPHEMERIS_TYPE":0,"NORAD_CAT_ID":66915,"ELEMENT_SET_NO":999,"REV_AT_EPOCH":3053,"BSTAR":0.00000588414,"MEAN_MOTION_DOT":-0.00000121,"MEAN_MOTION_DDOT":0},{"OBJECT_NAME":"HULIANWANG DIGUI-106","OBJECT_ID":"2025-285B","EPOCH":"2026-07-20T18:33:04.951872","CLASSIFICATION_TYPE":"U","MEAN_MOTION":13.2932325,"ECCENTRICITY":0.00009494,"INCLINATION":50.0074,"RA_OF_ASC_NODE":25.7143,"ARG_OF_PERICENTER":52.6096,"MEAN_ANOMALY":307.4863,"EPHEMERIS_TYPE":0,"NORAD_CAT_ID":66916,"ELEMENT_SET_NO":999,"REV_AT_EPOCH":3052,"BSTAR":0.000020403355,"MEAN_MOTION_DOT":-0.00000115,"MEAN_MOTION_DDOT":0},{"OBJECT_NAME":"HULIANWANG DIGUI-107","OBJECT_ID":"2025-285C","EPOCH":"2026-07-20T18:20:50.239968","CLASSIFICATION_TYPE":"U","MEAN_MOTION":13.2932618,"ECCENTRICITY":0.00009326,"INCLINATION":50.0041,"RA_OF_ASC_NODE":25.6067,"ARG_OF_PERICENTER":57.2764,"MEAN_ANOMALY":302.8198,"EPHEMERIS_TYPE":0,"NORAD_CAT_ID":66917,"ELEMENT_SET_NO":999,"REV_AT_EPOCH":3052,"BSTAR":0.000008218672,"MEAN_MOTION_DOT":-0.0000012,"MEAN_MOTION_DDOT":0}]}
