HULIANWANG DIGUI-92     
1 66000U 25231F   26202.26314049 -.00000114  00000+0  22315-4 0  9999
2 66000  50.0063  53.4404 0000505   2.8572 357.2303 13.29329147 37422
HULIANWANG DIGUI-93     
1 66001U 25231G   26201.94568667 -.00000110  00000+0  30676-4 0  9996
2 66001  50.0029  54.3653 0000501 356.8891   3.1978 13.29328191 37381
HULIANWANG DIGUI-94     
1 66002U 25231H   26201.87902506 -.00000109  00000+0  32214-4 0  9991
2 66002  50.0067  54.7636 0000531 358.2931   1.7939 13.29326146 37371
HULIANWANG DIGUI-95     
1 66003U 25231J   26201.93736113 -.00000106  00000+0  38551-4 0  9995
2 66003  50.0042  54.3481 0000468   3.5797 356.5079 13.29332707 37385
HULIANWANG DIGUI-96     
1 66412U 25258A   26202.11144531 -.00000087  00000+0  80850-4 0  9993
2 66412  50.0024 173.9673 0000815 271.1701  88.9077 13.29327567 34248
HULIANWANG DIGUI-97     
1 66413U 25258B   26202.21999515 -.00000087  00000+0  79273-4 0  9992
2 66413  49.9989 173.8011 0000959 270.6006  89.4756 13.29327013 34259
HULIANWANG DIGUI-98     
1 66414U 25258C   26202.13662408 -.00000085  00000+0  84908-4 0  9991
2 66414  50.0027 174.1082 0001056 265.4835  94.5917 13.29323526 34249
HULIANWANG DIGUI-99     
1 66415U 25258D   26202.10312458 -.00000091  00000+0  71479-4 0  9992
2 66415  50.0025 173.9263 0000933 273.8899  86.1867 13.29326821 34233
HULIANWANG DIGUI-100    
1 66416U 25258E   26202.12826135 -.00000084  00000+0  86929-4 0  9995
2 66416  50.0027 174.0689 0000981 278.1388  81.9372 13.29323571 34259
HULIANWANG DIGUI-101    
1 66417U 25258F   26202.19488703 -.00000080  00000+0  95203-4 0  9999
2 66417  49.9978 173.6449 0000782 275.7279  84.3504 13.29327496 34267
HULIANWANG DIGUI-102    
1 66418U 25258G   26202.16998112 -.00000093  00000+0  66404-4 0  9992
2 66418  49.9993 173.5405 0000852 269.4876  90.5899 13.29323480 34251
HULIANWANG DIGUI-103    
1 66419U 25258H   26202.16148643 -.00000092  00000+0  68072-4 0  9991
2 66419  49.9987 173.4815 0000967 279.1716  80.9047 13.29326601 34253
HULIANWANG DIGUI-104    
1 66420U 25258J   26202.15317544 -.00000093  00000+0  66945-4 0  9998
2 66420  50.0003 173.4783 0000900 269.1477  90.9292 13.29326592 34242
HULIANWANG DIGUI-105    
1 66915U 25285A   26201.85655352 -.00000121  00000+0  58841-5 0  9994
2 66915  50.0063  25.4673 0000925  54.4320 305.6639 13.29322775 30538
HULIANWANG DIGUI-106    
1 66916U 25285B   26201.77297398 -.00000115  00000+0  20403-4 0  9993
2 66916  50.0074  25.7143 0000949  52.6096 307.4863 13.29323250 30529
HULIANWANG DIGUI-107    
1 66917U 25285C   26201.76447037 -.00000120  00000+0  82187-5 0  9994
2 66917  50.0041  25.6067 0000932  57.2764 302.8198 13.29326180 30528
